ONEWEB-0387             
1 49313U 21090AL  25061.85639594  .00000011  00000+0 -53978-5 0  9994
2 49313  87.9302   8.2910 0001481  78.8552 281.2748 13.20771736168914
ONEWEB-0388             
1 49314U 21090AM  25061.44830617  .00000035  00000+0  56057-4 0  9994
2 49314  87.9185  38.7402 0001824  88.2717 271.8625 13.19723609164196
ONEWEB-0389             
1 50469U 21132A   25062.16665970  .00000097  00000+0  21771-3 0  9994
2 50469  87.9024  99.7067 0001551 101.2171 258.9135 13.17648605157343
ONEWEB-0390             
1 50470U 21132B   25061.63680114  .00000014  00000+0  38360-5 0  9997
2 50470  87.9025  99.8197 0001858  86.9550 273.1795 13.17647987157276
ONEWEB-0391             
1 50471U 21132C   25062.17002962  .00000100  00000+0  22404-3 0  9993
2 50471  87.9033  99.7173 0000999  99.1158 261.0087 13.17647229157341
ONEWEB-0392             
1 50472U 21132D   25061.59291619  .00000000  00000+0 -31958-4 0  9993
2 50472  87.9016  99.7955 0001489 101.6116 258.5183 13.17647071157308
ONEWEB-0393             
1 50473U 21132E   25061.56606381  .00000003  00000+0 -24783-4 0  9998
2 50473  87.9032  99.8037 0001735  97.3868 262.7461 13.17647756157292
ONEWEB-0394             
1 50474U 21132F   25062.05656328 -.00000014  00000+0 -67107-4 0  9990
2 50474  87.9044  69.1265 0001799  92.5268 267.6070 13.18685210160775
